<?xml version="1.0" encoding="UTF-8"?>
<kml xmlns="http://www.opengis.net/kml/2.2">
<Document>
<name>San Juli&#225;n to Pacific Ocean</name>
<open>1</open>

<LookAt>
<longitude>-70.866559</longitude>
<latitude>-51.713750</latitude>
<range>810997</range>
</LookAt>

<Style id="blueGreenBullet">
<IconStyle>
<Icon><href>http://maps.google.com/mapfiles/kml/paddle/blu-diamond-lv.png</href></Icon>
</IconStyle>
</Style>

<Style id="grayBullet">
<IconStyle>
<Icon><href>http://maps.google.com/mapfiles/kml/paddle/wht-circle-lv.png</href></Icon>
</IconStyle>
</Style>

<Style id="blackBullet">
<IconStyle>
<Icon><href>http://maps.google.com/mapfiles/kml/pal4/icon49.png</href></Icon>
</IconStyle>
</Style>

<Style id="blueBullet">
<IconStyle>
<Icon><href>http://maps.google.com/mapfiles/kml/paddle/blu-circle-lv.png</href></Icon>
</IconStyle>
</Style>

<Style id="wheelBullet">
<IconStyle>
<Icon><href>http://maps.google.com/mapfiles/kml/paddle/pause-lv.png</href></Icon>
</IconStyle>
</Style>

<Style id="ylwBullet">
<IconStyle>
<Icon><href>http://maps.google.com/mapfiles/kml/paddle/ylw-circle-lv.png</href></Icon>
</IconStyle>
</Style>

<Style id="greenBullet">
<IconStyle>
<Icon><href>http://maps.google.com/mapfiles/kml/paddle/grn-circle-lv.png</href></Icon>
</IconStyle>
</Style>

<Style id="magentaBullet">
<IconStyle>
<Icon><href>http://maps.google.com/mapfiles/kml/paddle/purple-circle-lv.png</href></Icon>
</IconStyle>
</Style>

<Style id="yellowLine">
<LineStyle>
<color>ff00ffff</color>
<width>3</width>
</LineStyle>
</Style>

<Style id="redBullet">
<IconStyle>
<Icon><href>http://maps.google.com/mapfiles/kml/pal4/icon49.png</href></Icon>
</IconStyle>
</Style>

<Style id="redGrnBullet">
<IconStyle>
<Icon><href>http://maps.google.com/mapfiles/kml/paddle/grn-diamond-lv.png</href></Icon>
</IconStyle>
</Style>


<Placemark>
<name>San Juli&#225;n</name>
<LookAt>
<longitude>-67.71959</longitude>
<latitude>-49.350704</latitude>
<range>1118</range>
</LookAt>
<styleUrl>#wheelBullet</styleUrl>
<Point>
<coordinates>-67.71959,-49.350704</coordinates>
</Point>
</Placemark>

<Placemark>
<name>Rio Santa Cruz</name>
<LookAt>
<longitude>-68.008321</longitude>
<latitude>-49.763007</latitude>
<range>143105</range>
</LookAt>
<styleUrl>#wheelBullet</styleUrl>
<Point>
<coordinates>-68.393819,-50.106453</coordinates>
</Point>
</Placemark>

<Folder>
<name>Sand Spit</name>
<Icon><href>http://maps.google.com/mapfiles/kml/paddle/grn-circle-lv.png</href></Icon>
<Style>
<ListStyle>
<listItemType>checkHideChildren</listItemType>
</ListStyle>
</Style>

<Placemark>
<name>Sand Spit (Albo)</name>
<LookAt>
<longitude>-68.821126</longitude>
<latitude>-52.187700</latitude>
<range>81378</range>
</LookAt>
<styleUrl>#redBullet</styleUrl>
<Point>
<coordinates>-69.13944,-52.0000</coordinates>
</Point>
</Placemark>

<Placemark>
<name>Sand Spit (actual)</name>
<LookAt>
<longitude>-68.821126</longitude>
<latitude>-52.187700</latitude>
<range>81378</range>
</LookAt>
<styleUrl>#greenBullet</styleUrl>
<Point>
<coordinates>-68.427735,-52.369989</coordinates>
</Point>
</Placemark>

<Placemark>
<name></name>
<styleUrl>#yellowLine</styleUrl>
<LineString>
<altitudeMode>clampToGround</altitudeMode>
<tessellate>1</tessellate>
<coordinates>
-69.13944,-52.0000
-68.427735,-52.369989
</coordinates>
</LineString>
</Placemark>
</Folder>

<Placemark>
<name>Cabo [de 11,000] Virgenes</name>
<LookAt>
<longitude>-68.821126</longitude>
<latitude>-52.187700</latitude>
<range>81378</range>
</LookAt>
<styleUrl>#blueBullet</styleUrl>
<Point>
<coordinates>-68.351363,-52.325591</coordinates>
</Point>
</Placemark>

<Placemark>
<name>Strait of Magellan (eastern mouth)</name>
<LookAt>
<longitude>-69.261697</longitude>
<latitude>-52.5000</latitude>
<range>198017</range>
</LookAt>
<styleUrl>#magentaBullet</styleUrl>
<Point>
<coordinates>-68.494366,-52.5000</coordinates>
</Point>
</Placemark>

<Placemark>
<name>Angostura Primera</name>
<LookAt>
<longitude>-69.547826</longitude>
<latitude>-52.488087</latitude>
<range>140015</range>
</LookAt>
<styleUrl>#greenBullet</styleUrl>
<Point>
<coordinates>-69.547826,-52.488087</coordinates>
</Point>
</Placemark>

<Placemark>
<name>Angostura Segunda</name>
<LookAt>
<longitude>-70.326572</longitude>
<latitude>-52.710349</latitude>
<range>140015</range>
</LookAt>
<styleUrl>#greenBullet</styleUrl>
<Point>
<coordinates>-70.326572,-52.710349</coordinates>
</Point>
</Placemark>

<Placemark>
<name>Isla Isabel</name>
<LookAt>
<longitude>-70.70449</longitude>
<latitude>-52.874297</latitude>
<range>377049</range>
</LookAt>
<styleUrl>#wheelBullet</styleUrl>
<Point>
<coordinates>-70.70449,-52.874297</coordinates>
</Point>
</Placemark>

<Placemark>
<name>Isla Dawson</name>
<LookAt>
<longitude>-70.518094</longitude>
<latitude>-53.609834</latitude>
<range>168413</range>
</LookAt>
<styleUrl>#greenBullet</styleUrl>
<Point>
<coordinates>-70.518094,-53.609834</coordinates>
</Point>
</Placemark>

<Folder>
<name>Isla Carlos III</name>
<Icon><href>http://maps.google.com/mapfiles/kml/paddle/blu-circle-lv.png</href></Icon>
<Style>
<ListStyle>
<listItemType>checkHideChildren</listItemType>
</ListStyle>
</Style>

<Placemark>
<name>Isla Carlos III</name>
<LookAt>
<longitude>-72.104193</longitude>
<latitude>-53.694891</latitude>
<range>43422</range>
</LookAt>
<styleUrl>#magentaBullet</styleUrl>
<Point>
<coordinates>-72.333333,-53.616667</coordinates>
</Point>
</Placemark>
</Folder>

<Placemark>
<name>Islas Charles</name>
<LookAt>
<longitude>-72.033752</longitude>
<latitude>-53.723144</latitude>
<range>17013</range>
</LookAt>
<styleUrl>#blackBullet</styleUrl>
<Point>
<coordinates>-72.121170,-53.738355</coordinates>
</Point>
</Placemark>

<Placemark>
<name>Channel of All Saints</name>
<LookAt>
<longitude>-72.002884</longitude>
<latitude>-53.735108</latitude>
<range>17013</range>
</LookAt>
<styleUrl>#grayBullet</styleUrl>
<Point>
<coordinates>-72.002884,-53.735108</coordinates>
</Point>
</Placemark>

<Placemark>
<name>Puerto Gallant (River of Sardines?)</name>
<LookAt>
<longitude>-72.104193</longitude>
<latitude>-53.694891</latitude>
<range>43422</range>
</LookAt>
<styleUrl>#blueBullet</styleUrl>
<Point>
<coordinates>-71.99950,-53.7000</coordinates>
</Point>
</Placemark>

<Placemark>
<name>Bah&#237;a Cordes</name>
<LookAt>
<longitude>-72.104193</longitude>
<latitude>-53.694891</latitude>
<range>43422</range>
</LookAt>
<styleUrl>#blackBullet</styleUrl>
<Point>
<coordinates>-71.919834,-53.71559</coordinates>
</Point>
</Placemark>

<Placemark>
<name>Puerto San Miguel (River of Isles?)</name>
<LookAt>
<longitude>-72.104193</longitude>
<latitude>-53.694891</latitude>
<range>43422</range>
</LookAt>
<styleUrl>#blueBullet</styleUrl>
<Point>
<coordinates>-71.911292,-53.694880</coordinates>
</Point>
</Placemark>

<Placemark>
<name>Cape Fermoso (now, Cabo Pilar)</name>
<LookAt>
<longitude>-74.625503</longitude>
<latitude>-52.626494</latitude>
<range>57584</range>
</LookAt>
<styleUrl>#greenBullet</styleUrl>
<Point>
<coordinates>-74.7000,-52.716667</coordinates>
</Point>
</Placemark>

<Placemark>
<name>Cabo Deseado</name>
<LookAt>
<longitude>-74.625503</longitude>
<latitude>-52.626494</latitude>
<range>57584</range>
</LookAt>
<styleUrl>#blueGreenBullet</styleUrl>
<Point>
<coordinates>-74.733333,-52.733333</coordinates>
</Point>
</Placemark>

<Placemark>
<name>Strait of Magellan (western mouth)</name>
<LookAt>
<longitude>-74.704104</longitude>
<latitude>-52.614482</latitude>
<range>198017</range>
</LookAt>
<styleUrl>#magentaBullet</styleUrl>
<Point>
<coordinates>-74.704104,-52.614482</coordinates>
</Point>
</Placemark>

<Placemark>
<name>Isla Desolaci&#243;n</name>
<LookAt>
<longitude>-74.625503</longitude>
<latitude>-52.626494</latitude>
<range>57584</range>
</LookAt>
<styleUrl>#magentaBullet</styleUrl>
<Point>
<coordinates>-74.672210,-52.751401</coordinates>
</Point>
</Placemark>

<Placemark>
<name>Isla Narborough</name>
<LookAt>
<longitude>-74.625503</longitude>
<latitude>-52.626494</latitude>
<range>57584</range>
</LookAt>
<styleUrl>#magentaBullet</styleUrl>
<Point>
<coordinates>-74.543682,-52.468575</coordinates>
</Point>
</Placemark>

</Document>
</kml>