<?xml version="1.0" encoding="UTF-8"?>
<kml xmlns="http://www.opengis.net/kml/2.2">
<Document>
<name>Baia dos Reis to Cerro de Montevideo</name>
<open>1</open>

<Style id="greenBullet">
<IconStyle>
<Icon><href>http://maps.google.com/mapfiles/kml/paddle/grn-circle-lv.png</href></Icon>
</IconStyle>
</Style>

<Style id="magentaBullet">
<IconStyle>
<Icon><href>http://maps.google.com/mapfiles/kml/paddle/purple-circle-lv.png</href></Icon>
</IconStyle>
</Style>

<Style id="yellowLine">
<LineStyle>
<color>ff00ffff</color>
<width>3</width>
</LineStyle>
</Style>


<Style id="redBullet">
<IconStyle>
<Icon><href>http://maps.google.com/mapfiles/kml/pal4/icon49.png</href></Icon>
</IconStyle>
</Style>

<Style id="wheelBullet">
<IconStyle>
<Icon><href>http://maps.google.com/mapfiles/kml/paddle/pause-lv.png</href></Icon>
</IconStyle>
</Style>

<Style id="redGrnBullet">
<IconStyle>
<Icon><href>http://maps.google.com/mapfiles/kml/paddle/grn-diamond-lv.png</href></Icon>
</IconStyle>
</Style>


<LookAt>
<longitude>-50.026356</longitude>
<latitude>-29.326918</latitude>
<range>1915205</range>
</LookAt>

<Folder>
<name>Baia dos Reis</name>
<Icon><href>http://maps.google.com/mapfiles/kml/paddle/grn-circle-lv.png</href></Icon>
<Style>
<ListStyle>
<listItemType>checkHideChildren</listItemType>
</ListStyle>
</Style>

<Placemark>
<name>Baia dos Reis</name>
<styleUrl>#magentaBullet</styleUrl>
<LookAt>
<longitude>-46.570199</longitude>
<latitude>-24.445591</latitude>
<range>570527</range>
</LookAt>
<Point>
<coordinates>-44.450038,-24.720598</coordinates>
</Point>
</Placemark>

<Placemark>
<name></name>
<styleUrl>#greenBullet</styleUrl>
<LookAt>
<longitude>-44.523901</longitude>
<latitude>-23.129635</latitude>
<range>163506</range>
</LookAt>
<Point>
<coordinates>-44.474020,-23.163603</coordinates>
</Point>
</Placemark>

<Placemark>
<name></name>
<styleUrl>#yellowLine</styleUrl>
<LineString>
<altitudeMode>clampToGround</altitudeMode>
<tessellate>1</tessellate>
<coordinates>
-44.474020,-23.163603
-44.450038,-24.720598
-48.406699,-25.472323
</coordinates>
</LineString>
</Placemark>

<Placemark>
<name>Baia de Paranagu&#225;?</name>
<styleUrl>#redBullet</styleUrl>
<LookAt>
<longitude>-48.406699</longitude>
<latitude>-25.472323</latitude>
<range>57654</range>
</LookAt>
<Point>
<coordinates>-48.406699,-25.472323</coordinates>
</Point>
</Placemark>
</Folder>

<Placemark>
<name>1 January (1520)</name> //27&#176; 40'//
<styleUrl>#greenBullet</styleUrl>
<LookAt>
<longitude>-48.017868</longitude>
<latitude>-29.81667</latitude>
<range>3076382</range>
</LookAt>
<Point>
<coordinates>-47.173799,-27.66667</coordinates>
</Point>
</Placemark>

<Placemark>
<name>4 January</name> //27&#176; 29'//
<styleUrl>#greenBullet</styleUrl>
<LookAt>
<longitude>-48.017868</longitude>
<latitude>-29.81667</latitude>
<range>3076382</range>
</LookAt>
<Point>
<coordinates>-47.624164,-28.48333</coordinates>
</Point>
</Placemark>

<Placemark>
<name>5 January</name> //29&#176; 49'//
<styleUrl>#greenBullet</styleUrl>
<LookAt>
<longitude>-48.017868</longitude>
<latitude>-29.81667</latitude>
<range>3076382</range>
</LookAt>
<Point>
<coordinates>-48.556773,-29.81667</coordinates>
</Point>
</Placemark>

<Placemark>
<name>6 January</name> // 31&#176; //
<styleUrl>#greenBullet</styleUrl>
<LookAt>
<longitude>-48.017868</longitude>
<latitude>-29.81667</latitude>
<range>3076382</range>
</LookAt>
<Point>
<coordinates>-49.347932,-31.000</coordinates>
</Point>
</Placemark>

<Placemark>
<name>7 January</name> //32&#176; 56'//
<styleUrl>#greenBullet</styleUrl>
<LookAt>
<longitude>-48.017868</longitude>
<latitude>-29.81667</latitude>
<range>3076382</range>
</LookAt>
<Point>
<coordinates>-50.431833,-32.93333</coordinates>
</Point>
</Placemark>

<Placemark>
<name>8 January</name> //34&#176; 31'//
<styleUrl>#wheelBullet</styleUrl>
<LookAt>
<longitude>-48.017868</longitude>
<latitude>-29.81667</latitude>
<range>3076382</range>
</LookAt>
<Point>
<coordinates>-53.692737,-34.51667</coordinates>
</Point>
</Placemark>

<Folder>
<name>Cabo Santa Mar&#237;a</name>
<Icon><href>http://maps.google.com/mapfiles/kml/paddle/grn-diamond-lv.png</href></Icon>
<Style>
<ListStyle>
<listItemType>checkHideChildren</listItemType>
</ListStyle>
</Style>

<Placemark>
<name></name>
//Cabo Santa Mar&#237;a (actual)//
<styleUrl>#greenBullet</styleUrl>
<LookAt>
<longitude>-54.542880</longitude>
<latitude>-34.812057</latitude>
<range>86506</range>
</LookAt>
<Point>
<coordinates>-54.134080,-34.651984</coordinates>
</Point>
</Placemark>

<Placemark>
<name>Cabo Santa Mar&#237;a (10 January)</name>
<styleUrl>#magentaBullet</styleUrl>
<LookAt>
<longitude>-54.542880</longitude>
<latitude>-34.812057</latitude>
<range>86506</range>
</LookAt>
<Point>
<coordinates>-54.343364,-34.948482</coordinates>
</Point>
</Placemark>

<Placemark>
<name>Punta del Este</name>
<styleUrl>#redBullet</styleUrl>
<LookAt>
<longitude>-54.542880</longitude>
<latitude>-34.812057</latitude>
<range>86506</range>
</LookAt>
<Point>
<coordinates>-54.951680,-34.972130</coordinates>
</Point>
</Placemark>

<Placemark>
<name></name>
<styleUrl>#yellowLine</styleUrl>
<LineString>
<altitudeMode>clampToGround</altitudeMode>
<tessellate>1</tessellate>
<coordinates>
-54.134080,-34.651984
-54.343364,-34.948482
-54.951680,-34.972130
</coordinates>
</LineString>
</Placemark>
</Folder>

<Placemark>
<name>Arroyo Solis Grande (Rio de los Patos)</name>
<styleUrl>#greenBullet</styleUrl>
<LookAt>
<longitude>-55.393649</longitude>
<latitude>-34.784270</latitude>
<range>8520</range>
</LookAt>
<Point>
<coordinates>-55.393649,-34.784270</coordinates>
</Point>
</Placemark>

<Placemark>
<name>Cerro de Montevideo</name>
<styleUrl>#greenBullet</styleUrl>
<LookAt>
<longitude>-56.258056</longitude>
<latitude>-34.888611</latitude>
<range>8520</range>
</LookAt>
<Point>
<coordinates>-56.258056,-34.888611</coordinates>
</Point>
</Placemark>

</Document>
</kml>