<?xml version="1.0" encoding="UTF-8"?>
<kml xmlns="http://www.opengis.net/kml/2.2">

<Document>
<name>Cabo de Santo Agostinho to Ilha de Paquetá</name>
<open>1</open>

<LookAt>
<longitude>-37.334805</longitude>
<latitude>-15.205264</latitude>
<range>2440558</range>
</LookAt>

<Style id="wheelBullet">
<IconStyle>
<Icon><href>http://maps.google.com/mapfiles/kml/paddle/pause-lv.png</href></Icon>
</IconStyle>
</Style>

<Style id="ylwBullet">
<IconStyle>
<Icon><href>http://maps.google.com/mapfiles/kml/paddle/ylw-circle-lv.png</href></Icon>
</IconStyle>
</Style>

<Style id="greenBullet">
<IconStyle>
<Icon><href>http://maps.google.com/mapfiles/kml/paddle/grn-circle-lv.png</href></Icon>
</IconStyle>
</Style>

<Style id="magentaBullet">
<IconStyle>
<Icon><href>http://maps.google.com/mapfiles/kml/paddle/purple-circle-lv.png</href></Icon>
</IconStyle>
</Style>

<Style id="yellowLine">
<LineStyle>
<color>ff00ffff</color>
<width>3</width>
</LineStyle>
</Style>

<Placemark>
<name>29 November</name>
<LookAt>
<longitude>-37.334805</longitude>
<latitude>-15.205264</latitude>
<range>2440558</range>
</LookAt>
<styleUrl>#greenBullet</styleUrl>
<Point>
<coordinates>-33.642101,-7.000</coordinates>
</Point>
</Placemark>

<Placemark>
<name>Cabo de São Agostinho</name>
<LookAt>
<longitude>-34.943468</longitude>
<latitude>-8.303576</latitude>
<range>7829</range>
</LookAt>
<styleUrl>#ylwBullet</styleUrl>
<Point>
<coordinates>-34.943468,-8.303576</coordinates>
</Point>
</Placemark>

<Placemark>
<name>30 November</name>
<LookAt>
<longitude>-37.334805</longitude>
<latitude>-15.205264</latitude>
<range>2440558</range>
</LookAt>
<styleUrl>#greenBullet</styleUrl>
<Point>
<coordinates>-34.457311,-8.98333</coordinates>
</Point>
</Placemark>

<Placemark>
<name>1 December</name>
<LookAt>
<longitude>-37.334805</longitude>
<latitude>-15.205264</latitude>
<range>2440558</range>
</LookAt>
<styleUrl>#greenBullet</styleUrl>
<Point>
<coordinates>-35.246608,-11.06667</coordinates>
</Point>
</Placemark>

<Placemark>
<name>2 December</name>
<LookAt>
<longitude>-37.334805</longitude>
<latitude>-15.205264</latitude>
<range>2440558</range>
</LookAt>
<styleUrl>#greenBullet</styleUrl>
<Point>
<coordinates>-36.007275,-13.0000</coordinates>
</Point>
</Placemark>

<Placemark>
<name>3 December</name>
<styleUrl>#greenBullet</styleUrl>
<LookAt>
<longitude>-37.334805</longitude>
<latitude>-15.205264</latitude>
<range>2440558</range>
</LookAt>
<styleUrl>#greenBullet</styleUrl>
<Point>
<coordinates>-36.834008,-14.96667</coordinates>
</Point>
</Placemark>

<Placemark>
<name>4 December</name>
<LookAt>
<longitude>-37.334805</longitude>
<latitude>-15.205264</latitude>
<range>2440558</range>
</LookAt>
<styleUrl>#greenBullet</styleUrl>
<Point>
<coordinates>-37.385222,-16.28333</coordinates>
</Point>
</Placemark>

<Placemark>
<name>5 December</name>
<LookAt>
<longitude>-37.334805</longitude>
<latitude>-15.205264</latitude>
<range>2440558</range>
</LookAt>
<styleUrl>#greenBullet</styleUrl>
<Point>
<coordinates>-37.944219,-17.21667</coordinates>
</Point>
</Placemark>

<Placemark>
<name>6 December</name>
<LookAt>
<longitude>-37.334805</longitude>
<latitude>-15.205264</latitude>
<range>2440558</range>
</LookAt>
<styleUrl>#greenBullet</styleUrl>
<Point>
<coordinates>-38.799590,-18.41667</coordinates>
</Point>
</Placemark>

<Placemark>
<name>7 December</name>
<LookAt>
<longitude>-37.334805</longitude>
<latitude>-15.205264</latitude>
<range>2440558</range>
</LookAt>
<styleUrl>#greenBullet</styleUrl>
<Point>
<coordinates>-39.636458,-18.9500</coordinates>
</Point>
</Placemark>

<Placemark>
<name>8 December (8&#176; S.)</name>
<LookAt>
<longitude>-37.334805</longitude>
<latitude>-15.205264</latitude>
<range>2440558</range>
</LookAt>
<styleUrl>#greenBullet</styleUrl>
<Point>
<coordinates>-39.94078,-19.9500</coordinates>
</Point>
</Placemark>

<Placemark>
<name>9 December</name>
<LookAt>
<longitude>-37.334805</longitude>
<latitude>-15.205264</latitude>
<range>2440558</range>
</LookAt>
<styleUrl>#greenBullet</styleUrl>
<Point>
<coordinates>-40.650852,-21.5000</coordinates>
</Point>
</Placemark>

<Placemark>
<name>Cabo de S&#227;o Thom&#233;</name>
<LookAt>
<longitude>-41.008782</longitude>
<latitude>-21.614786</latitude>
<range>129888</range>
</LookAt>
<styleUrl>#greenBullet</styleUrl>
<Point>
<coordinates>-41.008782,-21.614786</coordinates>
</Point>
</Placemark>

<Placemark>
<name>Cabo Frio</name>
<LookAt>
<longitude>-41.976238</longitude>
<latitude>-22.889294</latitude>
<range>13395</range>
</LookAt>
<styleUrl>#greenBullet</styleUrl>
<Point>
<coordinates>-42.003137,-22.888362</coordinates>
</Point>
</Placemark>

<Folder>
<name>Lagoa de Araruama</name>
<Icon><href>http://maps.google.com/mapfiles/kml/paddle/ylw-circle-lv.png</href></Icon>
<Style>
<ListStyle>
<listItemType>checkHideChildren</listItemType>
</ListStyle>
</Style>

<Placemark>
<name>Lagoa de Araruama</name>
<LookAt>
<longitude>-42.002663</longitude>
<latitude>-22.889294</latitude>
<range>22863</range>
</LookAt>
<styleUrl>#magentaBullet</styleUrl>
<Point>
<coordinates>-42.015122,-22.858704</coordinates>
</Point>
</Placemark>

<Placemark>
<name></name>
<styleUrl>#yellowLine</styleUrl>
<LineString>
<altitudeMode>relativeToGround</altitudeMode>
<tessellate>1</tessellate>
<coordinates>
-42.040093,-22.866524
-42.014599,-22.859085
-42.004342,-22.883788
</coordinates>
</LineString>
</Placemark>
</Folder>

<Folder>
<name>Islands off Cabo Frio</name>
<Icon><href>http://maps.google.com/mapfiles/kml/paddle/ylw-circle-lv.png</href></Icon>
<LookAt>
<longitude>-41.943108</longitude>
<latitude>-22.872305</latitude>
<range>12145</range>
</LookAt>
<styleUrl>#ylwBullet</styleUrl>
<Style>
<ListStyle>
<listItemType>checkHideChildren</listItemType>
</ListStyle>
</Style>

<Placemark>
<name>Ilha de Papagaios</name>
<LookAt>
<longitude>-41.982358</longitude>
<latitude>-22.896864</latitude>
<range>2677</range>
</LookAt>
<styleUrl>#magentaBullet</styleUrl>
<Point>
<coordinates>-41.981810,-22.895799</coordinates>
</Point>
</Placemark>

<Placemark>
<name>Ilha(s) Dois Irm&#227;os</name>
<LookAt>
<longitude>-41.982358</longitude>
<latitude>-22.896864</latitude>
<range>2677</range>
</LookAt>
<styleUrl>#magentaBullet</styleUrl>
<Point>
<coordinates>-41.959878,-22.884158</coordinates>
</Point>
</Placemark>

<Placemark>
<name>Ilha Comprida</name>
<LookAt>
<longitude>-41.944811</longitude>
<latitude>-22.870947</latitude>
<range>2892</range>
</LookAt>
<styleUrl>#magentaBullet</styleUrl>
<Point>
<coordinates>-41.943546,-22.869361</coordinates>
</Point>
</Placemark>

<Placemark>
<name>Ilha dos Cap&#245;es</name>
<LookAt>
<longitude>-41.982358</longitude>
<latitude>-22.896864</latitude>
<range>2677</range>
</LookAt>
<styleUrl>#magentaBullet</styleUrl>
<Point>
<coordinates>-41.92217,-22.864377</coordinates>
</Point>
</Placemark>

<Placemark>
<name>Ilha dos Pargos</name>
<LookAt>
<longitude>-41.9066618</longitude>
<latitude>-22.857214</latitude>
<range>2188</range>
</LookAt>
<styleUrl>#magentaBullet</styleUrl>
<Point>
<coordinates>-41.906435,-22.858437</coordinates>
</Point>
</Placemark>

</Folder>

<Placemark>
<name>Rio de Janeiro</name>
<LookAt>
<longitude>-43.173093</longitude>
<latitude>-22.907047</latitude>
<range>9559</range>
</LookAt>
<styleUrl>#wheelBullet</styleUrl>
<Point>
<coordinates>-43.173093,-22.907047</coordinates>
</Point>
</Placemark>

<Placemark>
<name>Ilha de Paquet&#225;</name>
<LookAt>
<longitude>-43.109772</longitude>
<latitude>-22.760758</latitude>
<range>44215</range>
</LookAt>
<styleUrl>#greenBullet</styleUrl>
<Point>
<coordinates>-43.109419,-22.759938</coordinates>
</Point>
</Placemark>

</Document>
</kml>