<?xml version="1.0" encoding="UTF-8"?>
<kml xmlns="http://www.opengis.net/kml/2.2">
<Document>
<name>Montevideo to San Juli&#225;n</name>
<open>1</open>

<LookAt>
<longitude>-61.351764</longitude>
<latitude>-42.167769</latitude>
<range>2541080</range>
</LookAt>

<Style id="redBullet">
<IconStyle>
<Icon><href>http://maps.google.com/mapfiles/kml/pal4/icon49.png</href></Icon>
</IconStyle>
</Style>

<Style id="blackBullet">
<IconStyle>
<Icon><href>http://maps.google.com/mapfiles/kml/pal4/icon49.png</href></Icon>
</IconStyle>
</Style>

<Style id="wheelBullet">
<IconStyle>
<Icon><href>http://maps.google.com/mapfiles/kml/paddle/pause-lv.png</href></Icon>
</IconStyle>
</Style>

<Style id="yellowLine">
<LineStyle>
<color>ff00ffff</color>
<width>3</width>
</LineStyle>
</Style>

<Style id="magentaBullet">
<IconStyle>
<Icon><href>http://maps.google.com/mapfiles/kml/paddle/purple-circle-lv.png</href></Icon>
</IconStyle>
</Style>

<Style id="blueBullet">
<IconStyle>
<Icon><href>http://maps.google.com/mapfiles/kml/paddle/blu-circle-lv.png</href></Icon>
</IconStyle>
</Style>

<Style id="ylwBullet">
<IconStyle>
<Icon><href>http://maps.google.com/mapfiles/kml/paddle/ylw-circle-lv.png</href></Icon>
</IconStyle>
</Style>

<Style id="greenBullet">
<IconStyle>
<Icon><href>http://maps.google.com/mapfiles/kml/paddle/grn-circle-lv.png</href></Icon>
</IconStyle>
</Style>


<Folder>
<name>Buenos Aires &amp; Mondevideo</name>
<Icon><href>http://maps.google.com/mapfiles/kml/pal4/icon49.png</href></Icon>
<LookAt>
<longitude>-57.224278</longitude>
<latitude>-34.839379</latitude>
<range>233732</range>
</LookAt>
<Style>
<ListStyle>
<listItemType>checkHideChildren</listItemType>
</ListStyle>
</Style>

<Placemark>
<name>Buenos Aires</name>
<styleUrl>#magentaBullet</styleUrl>
<LookAt>
<longitude>-58.421653</longitude>
<latitude>-34.571320</latitude>
<range>95667</range>
</LookAt>
<Point>
<coordinates>-58.38401,-34.607157</coordinates>
</Point>
</Placemark>

<Placemark>
<name>Montevideo</name>
<styleUrl>#magentaBullet</styleUrl>
<LookAt>
<longitude>-56.158163</longitude>
<latitude>-34.824266</latitude>
<range>60248</range>
</LookAt>
<Point>
<coordinates>-56.166151,-34.897116</coordinates>
</Point>
</Placemark>
</Folder>

<Folder>
<name>Rio de la Plata</name>
<Icon><href>http://maps.google.com/mapfiles/kml/paddle/blu-diamond-lv.png</href></Icon>
<LookAt>
<longitude>-57.276822</longitude>
<latitude>-34.792427</latitude>
<range>233732</range>
</LookAt>
<Style>
<ListStyle>
<listItemType>checkHideChildren</listItemType>
</ListStyle>
</Style>

<Placemark>
<name>Rio de la Plata</name>
<LookAt>
<longitude>-57.276822</longitude>
<latitude>-34.792427</latitude>
<range>233732</range>
</LookAt>
<styleUrl>#magentaBullet</styleUrl>
<Point>
<coordinates>-57.201594,-34.792427</coordinates>
</Point>
</Placemark>
</Folder>

<Placemark>
<name>2 February</name>
<LookAt>
<longitude>-56.079775</longitude>
<latitude>-35.048413</latitude>
<range>431859</range>
</LookAt>
<styleUrl>#wheelBullet</styleUrl>
<Point>
<coordinates>-56.079775,-35.048413</coordinates>
</Point>
</Placemark>

<Placemark>
<name>Punta Rasa</name>
<LookAt>
<longitude>-56.615992</longitude>
<latitude>-36.603661</latitude>
<range>112821</range>
</LookAt>
<styleUrl>#greenBullet</styleUrl>
<Point>
<coordinates>-56.776606,-36.293437</coordinates>
</Point>
</Placemark>

<Placemark>
<name>Cabo San Antonio</name>
<LookAt>
<longitude>-56.615992</longitude>
<latitude>-36.603661</latitude>
<range>112821</range>
</LookAt>
<styleUrl>#greenBullet</styleUrl>
<Point>
<coordinates>-56.675973,-36.666667</coordinates>
</Point>
</Placemark>

<Placemark>
<name>Cabo Santa Polonia (now, Punta M&#233;danos)</name>
<LookAt>
<longitude>-56.615992</longitude>
<latitude>-36.603661</latitude>
<range>112821</range>
</LookAt>
<styleUrl>#greenBullet</styleUrl>
<Point>
<coordinates>-56.664912,-36.877316</coordinates>
</Point>
</Placemark>

<Placemark>
<name>9 February</name>
<LookAt>
<longitude>-57.051041</longitude>
<latitude>-37.5000</latitude>
<range>216177</range>
</LookAt>
<styleUrl>#greenBullet</styleUrl>
<Point>
<coordinates>-57.051041,-37.5000</coordinates>
</Point>
</Placemark>

<Placemark>
<name>Cabo Corrientes</name>
<styleUrl>#redBullet</styleUrl>
<LookAt>
<longitude>-57.519895</longitude>
<latitude>-38.038755</latitude>
<range>23257</range>
</LookAt>
<Point>
<coordinates>-57.519895,-38.038755</coordinates>
</Point>
</Placemark>

<Placemark>
<name>Punta de las Arenas (now, Punta Mogotes)</name>
<LookAt>
<longitude>-57.534796</longitude>
<latitude>-38.081004</latitude>
<range>15353</range>
</LookAt>
<styleUrl>#greenBullet</styleUrl>
<Point>
<coordinates>-57.534796,-38.081004</coordinates>
</Point>
</Placemark>

<Placemark>
<name>10 February</name>
<LookAt>
<longitude>-59.358025</longitude>
<latitude>-38.8000</latitude>
<range>216177</range>
</LookAt>
<styleUrl>#greenBullet</styleUrl>
<Point>
<coordinates>-59.358025,-38.8000</coordinates>
</Point>
</Placemark>

<Placemark>
<name>Bah&#237;a Blanca</name>
<LookAt>
<longitude>-62.243477</longitude>
<latitude>-39.136744</latitude>
<range>95083</range>
</LookAt>
<styleUrl>#blackBullet</styleUrl>
<Point>
<coordinates>-62.243477,-39.136744</coordinates>
</Point>
</Placemark>

<Placemark>
<name>12-14 February</name>
<LookAt>
<longitude>-61.823326</longitude>
<latitude>-39.18333</latitude>
<range>216177</range>
</LookAt>
<styleUrl>#greenBullet</styleUrl>
<Point>
<coordinates>-61.823326,-39.18333</coordinates>
</Point>
</Placemark>

<Placemark>
<name>20 February</name>
<LookAt>
<longitude>-62.006868</longitude>
<latitude>-40.28333</latitude>
<range>216177</range>
</LookAt>
<styleUrl>#greenBullet</styleUrl>
<Point>
<coordinates>-62.006868,-40.28333</coordinates>
</Point>
</Placemark>

<Placemark>
<name>21 February</name>
<LookAt>
<longitude>-61.351764</longitude>
<latitude>-42.167769</latitude>
<range>2541080</range>
</LookAt>
<styleUrl>#greenBullet</styleUrl>
<Point>
<coordinates>-58.4667,-42.06667</coordinates>
</Point>
</Placemark>

<Placemark>
<name>23 February</name>
<LookAt>
<longitude>-61.351764</longitude>
<latitude>-42.167769</latitude>
<range>2541080</range>
</LookAt>
<styleUrl>#greenBullet</styleUrl>
<Point>
<styleUrl>#greenBullet</styleUrl>
<coordinates>-59.3500,-43.0500</coordinates>
</Point>
</Placemark>

<Placemark>
<name>Golfo San Mat&#237;as (24 February)</name>
<LookAt>
<longitude>-64.004423</longitude>
<latitude>-41.86113</latitude>
<range>342215</range>
</LookAt>
<styleUrl>#greenBullet</styleUrl>
<Point>
<coordinates>-64.212014,-41.605224</coordinates>
</Point>
</Placemark>

<Placemark>
<name>27 February</name>
<LookAt>
<longitude>-64.212014</longitude>
<latitude>-44.000</latitude>
<range>306170</range>
</LookAt>
<styleUrl>#greenBullet</styleUrl>
<Point>
<coordinates>-64.212014,-44.000</coordinates>
</Point>
</Placemark>

<Placemark>
<name>Golfo Nuevo?</name>
<styleUrl>#ylwBullet</styleUrl>
<LookAt>
<longitude>-64.004423</longitude>
<latitude>-41.86113</latitude>
<range>342215</range>
</LookAt>
<Point>
<coordinates>-64.552282,-42.751426</coordinates>
</Point>
</Placemark>

<Placemark>
<name>Golfo San Jorge</name>
<styleUrl>#ylwBullet</styleUrl>
<LookAt>
<longitude>-66.354433</longitude>
<latitude>-46.134215</latitude>
<range>851750</range>
</LookAt>
<Point>
<coordinates>-66.354433,-46.134215</coordinates>
</Point>
</Placemark>

<Placemark>
<name>29 February</name>
<LookAt>
<longitude>-61.351764</longitude>
<latitude>-42.167769</latitude>
<range>2541080</range>
</LookAt>
<styleUrl>#greenBullet</styleUrl>
<Point>
<coordinates>-64.212014,-45.5000</coordinates>
</Point>
</Placemark>

<Placemark>
<name>2 March</name>
<LookAt>
<longitude>-61.351764</longitude>
<latitude>-42.167769</latitude>
<range>2541080</range>
</LookAt>
<styleUrl>#greenBullet</styleUrl>
<Point>
<coordinates>-64.212014,-47.0000</coordinates>
</Point>
</Placemark>

<Placemark>
<name>Lupi Marini (now, Punta Medanosa)</name>
<styleUrl>#magentaBullet</styleUrl>
<LookAt>
<longitude>-65.770259</longitude>
<latitude>-47.948897</latitude>
<range>41113</range>
</LookAt>
<Point>
<coordinates>-65.770259,-47.948897</coordinates>
</Point>
</Placemark>

<Placemark>
<name>San Juli&#225;n</name>
<LookAt>
<longitude>-67.71959</longitude>
<latitude>-49.350704</latitude>
<range>81378</range>
</LookAt>
<styleUrl>#wheelBullet</styleUrl>
<Point>
<coordinates>-67.71959,-49.350704</coordinates>
</Point>
</Placemark>

</Document>
</kml>